# Made by eph2tle, compiled Jul 16 2020 18:47:12
# Run at Fri Jul 24 21:18:20 2020
#
#    The following TLEs (Two-Line Elements) were generated by fitting
# a numerically-integrated ephemeris,  based on the orbit given below,
# to the SDP4/SGP4 models.  Each TLE is good for the interval between
# its epoch and the epoch of the subsequent TLE (usually one day).
# The maximum deviation between the numerically integrated ephemerides
# and the TLE-based ephemeris, in kilometers,  is given for each TLE
# as the "worst residual".
#
#    This fitting is done using the 'eph2tle' code packaged with Find_Orb.
# The code has details on how the TLEs were computed :
#
#    https://github.com/Bill-Gray/find_orb/eph2tle.cpp
#
#    Be warned:  the error given is that between the numerically
# integrated ephems and the TLE model.  There will usually be at
# least some additional difference between the ephems and the actual
# motion of the satellite,  especially if the ephemerides are based
# on a short arc.  If the following orbital elements say something
# like "[based on] 10 observations 2015 Jan. 1-13",  and the TLEs
# are for 2015 May,  the extrapolation may be tenuous at best.  If
# your application requires a specific level of accuracy,  you may
# want to contact me;  I can give you some idea as to the fit of the
# underlying data (and possibly TLEs based on newer data).
#
#   You can usually find the underlying observational data,  and the
# fitted orbit,  residuals,  ephemerides,  and sometimes some comments
# about the object,  among the pages listed at
#
#    https://www.projectpluto.com/pluto/mpecs/pseudo.htm
#
#    WARNING:  for this object,  "normal" TLEs cannot be fitted.  (This
# usually means an object with an hyperbolic or nearly-parabolic orbit.)
# For this and similar cases,   an alternative model is used,  in which
# most of the traditional TLE data is replaced by six signed 8-digit hex
# numbers.  These six numbers are a state vector,  numerically integrated
# using a simplified force model.  This is necessary for objects at L2 or
# L1,  and sometimes for objects in high orbits where the SDP4/SGP4 model
# fails.  I'll be posting source code for this.  But be aware:  it's my
# own extension,  doesn't work with other code,  and is therefore used
# only when necessary.
#
#    Also,  if you use a TLE outside the "correct" time range (between
# its MJD and that of the next TLE),  all bets are off.  I've carefully
# computed and minimized the worst error over the "correct" time frame,
# but the ephemeris may (or may not) diverge wildly outside of it.
#
# Ephem range: 59054.000000 59074.000000 1.000000
# Created Fri Jul 24 21:18:14 2020
# Ephemeris start: 24 Jul 2020  0:00:00
# Ephemeris end:   13 Aug 2020  0:00:00
# Times are all TDT
# Positions/velocities are in equatorial J2000
# Orbital elements:  TianweA
#    Perigee 2020 Jul 23.2187358 +/- 7.4e-5 TT =  5:14:58.77 (JD 2459053.7187358)
# Epoch 2020 Jul 24.0 TT = JDT 2459054.5                        Find_Orb
# q  6553.1144594 +/- 2.23            (J2000 equator)
# H   26.8  G 0.15                    Peri.  249.8523261 +/- 0.011
#                                     Node   341.6742302 +/- 0.008
# e   1.196283309 +/- 0.000108        Incl.   29.4169960 +/- 0.00033
# From 17 observations 2020 July 23-24 (16.0 hr); mean residual 0".210
#
# 1 NoradU COSPAR   Epoch.epoch     dn/dt/2  d2n/dt2/6 BSTAR    T El# C
# 2 NoradU Inclina RAAscNode Eccent  ArgPeri MeanAno  MeanMotion Rev# C

# Worst residual: 4.04 km
# MJD 59054.000000 (2020 Jul 24  0:00)
TianweA
1 99999U 00000    20205.99919926 +004MLK3M +000WDP4V +001AU0GVH  9370
2 99999                          +000L2JDV +0005HY5W +0006OBUC     05

# Worst residual: 9.78 km
# MJD 59055.000000 (2020 Jul 25  0:00)
TianweA
1 99999U 00000    20206.99919926 +009J1BMT +0026OFZA +002UUPZBH  9379
2 99999                          +000K0YEK +00059LHC +0006D1JK     08

# Worst residual: 1.57 km
# MJD 59056.000000 (2020 Jul 26  0:00)
TianweA
1 99999U 00000    20207.99919926 +00EAGKCD +003FR9GK +004DAEYAH  9376
2 99999                          +000JP7BD +00056EUW +000692E9     01

# Worst residual: 1.08 km
# MJD 59057.000000 (2020 Jul 27  0:00)
TianweA
1 99999U 00000    20208.99919926 +00IZWN72 +004O9CMU +005V0P6AH  9374
2 99999                          +000JJEME +00054KAG +00066UI4     02

# Worst residual: 1.22 km
# MJD 59058.000000 (2020 Jul 28  0:00)
TianweA
1 99999U 00000    20209.99919926 +00NO9Q7T +005WDYCC +007CB3MXH  9373
2 99999                          +000JFV54 +000537Q4 +00065ANJ     06

# Worst residual: 1.36 km
# MJD 59059.000000 (2020 Jul 29  0:00)
TianweA
1 99999U 00000    20210.99919926 +00SBX889 +00747UZ0 +008T9JG1H  9375
2 99999                          +000JDD04 +000521US +000641E5     05

# Worst residual: 1.46 km
# MJD 59060.000000 (2020 Jul 30  0:00)
TianweA
1 99999U 00000    20211.99919926 +00WZ1L22 +008BRWR5 +00A9XQIMH  9372
2 99999                          +000JBDJZ +00050WSR +00062WJW     00

# Worst residual: 1.52 km
# MJD 59061.000000 (2020 Jul 31  0:00)
TianweA
1 99999U 00000    20212.99919926 +011LQ2TN +009J1TCD +00BQCAWOH  9370
2 99999                          +000J9NSD +0004ZOR8 +00061SOK     05

# Worst residual: 1.56 km
# MJD 59062.000000 (2020 Aug  1  0:00)
TianweA
1 99999U 00000    20213.99919926 +01680FE1 +00AQ0IAE +00D6H6R2H  9377
2 99999                          +000J836O +0004YAX7 +00060NJS     01

# Worst residual: 1.61 km
# MJD 59063.000000 (2020 Aug  2  0:00)
TianweA
1 99999U 00000    20214.99919926 +01ATXKZF +00BWMBOZ +00EMBVXTH  9379
2 99999                          +000J6LN5 +0004WP3L +0005ZFKG     00

# Worst residual: 1.72 km
# MJD 59064.000000 (2020 Aug  3  0:00)
TianweA
1 99999U 00000    20215.99919926 +01FFI6CK +00D2T4RC +00G1VKH5H  9378
2 99999                          +000J56HM +0004UTK6 +0005Y3JP     06

# Worst residual: 1.91 km
# MJD 59065.000000 (2020 Aug  4  0:00)
TianweA
1 99999U 00000    20216.99919926 +01K0QSKY +00E8IFJN +00HH35EHH  9377
2 99999                          +000J3TY2 +0004SMZF +0005WML8     09

# Worst residual: 2.16 km
# MJD 59066.000000 (2020 Aug  5  0:00)
TianweA
1 99999U 00000    20217.99919926 +01OLO59P +00FDNGDJ +00IVXD0YH  9376
2 99999                          +000J2KSB +0004Q4FJ +0005V010     03

# Worst residual: 2.43 km
# MJD 59067.000000 (2020 Aug  6  0:00)
TianweA
1 99999U 00000    20218.99919926 +01T6B67O +00GI58XS +00KACSRLH  9375
2 99999                          +000J1G3U +0004N9AR +0005T7E3     09

# Worst residual: 2.67 km
# MJD 59068.000000 (2020 Aug  7  0:00)
TianweA
1 99999U 00000    20219.99919926 +01XQP3I6 +00HLWR05 +00LOBYP4H  9372
2 99999                          +000J0H66 +0004K19U +0005R8DD     06

# Worst residual: 2.86 km
# MJD 59069.000000 (2020 Aug  8  0:00)
TianweA
1 99999U 00000    20220.99919926 +022AVGI2 +00IOUUOM +00N1TATUH  9372
2 99999                          +000IZPB7 +0004GG9W +0005P2SK     04

# Worst residual: 2.98 km
# MJD 59070.000000 (2020 Aug  9  0:00)
TianweA
1 99999U 00000    20221.99919926 +026UW451 +00JQWG7P +00OER84CH  9373
2 99999                          +000IZ5VA +0004CIEK +0005MQL2     03

# Worst residual: 3.09 km
# MJD 59071.000000 (2020 Aug 10  0:00)
TianweA
1 99999U 00000    20222.99919926 +02BET8X5 +00KRYHBQ +00PR459ZH  9370
2 99999                          +000IYW6E +000487WH +0005K7R8     02

# Worst residual: 3.23 km
# MJD 59072.000000 (2020 Aug 11  0:00)
TianweA
1 99999U 00000    20223.99919926 +02FYPCT4 +00LRXYC2 +00R2UHDOH  9378
2 99999                          +000IYXK4 +00043L4E +0005HIDR     07

# Worst residual: 3.45 km
# MJD 59073.000000 (2020 Aug 12  0:00)
TianweA
1 99999U 00000    20224.99919926 +02KIN95Y +00MQRZ36 +00SDWOENH  9374
2 99999                          +000IZBBX +0003YMJ1 +0005EMLG     06
Avg worst resid: 2.59 km                            
Worst residual in entire run: 9.78 km on MJD 59055.0
       1     3     10    30    100   300   1K    3K    10K   km
     0    15     5     0     0     0     0     0     0     0
